*******************************************************************************
Ephemeris / WWW_USER Mon Jul 15 19:35:28 2024 Pasadena, USA      / Horizons    
*******************************************************************************
Target body name: (2015 BP519)                    {source: JPL#11}
Center body name: Earth (399)                     {source: DE441}
Center-site name: Gemini South Obs., Cerro Pachon
*******************************************************************************
Start time      : A.D. 2018-Oct-19 23:04:00.0000 UT      
Stop  time      : A.D. 2018-Oct-20 09:51:00.0000 UT      
Step-size       : 1 minutes
*******************************************************************************
Target pole/equ : undefined
Target radii    : undefined                                                    
Center geodetic : 289.2634, -30.2406227, 2.71233  {E-lon(deg),Lat(deg),Alt(km)}
Center cylindric: 289.2634,5517.21435,-3194.81213 {E-lon(deg),Dxy(km),Dz(km)}
Center pole/equ : ITRF93                          {East-longitude positive}
Center radii    : 6378.137, 6378.137, 6356.752 km {Equator_a, b, pole_c}       
Target primary  : Sun
Vis. interferer : MOON (R_eq= 1737.400) km        {source: DE441}
Rel. light bend : Sun                             {source: DE441}
Rel. lght bnd GM: 1.3271E+11 km^3/s^2                                          
Small-body perts: Yes                             {source: SB441-N16}
Atmos refraction: NO (AIRLESS)
RA format       : HMS
Time format     : CAL 
Calendar mode   : Mixed Julian/Gregorian
RTS-only print  : NO       
EOP file        : eop.240715.p241008                                           
EOP coverage    : DATA-BASED 1962-JAN-20 TO 2024-JUL-15. PREDICTS-> 2024-OCT-07
Units conversion: 1 au= 149597870.700 km, c= 299792.458 km/s, 1 day= 86400.0 s 
Table cut-offs 1: Elevation (-90.0deg=NO ),Airmass (>38.000=NO), Daylight (YES)
Table cut-offs 2: Solar elongation (  0.0,180.0=NO ),Local Hour Angle( 0.0=NO )
Table cut-offs 3: RA/DEC angular rate (     0.0=NO )                           
*******************************************************************************
Initial IAU76/J2000 heliocentric ecliptic osculating elements (au, days, deg.):
  EPOCH=  2459185.5 ! 2020-Dec-02.00 (TDB)         Residual RMS= .076636       
   EC= .9196800569382362   QR= 35.27062259520413   TP= 2473034.2681888649      
   OM= 135.0361763364557   W=  348.1354702472351   IN= 54.13300168900849       
  Equivalent ICRF heliocentric cartesian coordinates (au, au/d):
   X= 1.527332710437156E+01  Y= 4.057000090505051E+01  Z=-2.695001507835700E+01
  VX=-2.654302427537234E-03 VY= 4.512065776218028E-05 VZ= 1.968031006040699E-03
Asteroid physical parameters (km, seconds, rotational period in hours):        
   GM= n.a.                RAD= n.a.               ROTPER= n.a.                
   H= 4.34                 G= .150                 B-V= n.a.                   
                           ALBEDO= n.a.            STYP= n.a.                  
*******************************************************************************
 Date__(UT)__HR:MN     R.A._________(ICRF)_________DEC
******************************************************
$$SOE
 2018-Oct-20 03:10  m  04 30 54.771248 -33 27 00.64441
 2018-Oct-20 03:11  m  04 30 54.768975 -33 27 00.67092
 2018-Oct-20 03:12  m  04 30 54.766701 -33 27 00.69744
 2018-Oct-20 03:13  m  04 30 54.764428 -33 27 00.72396
 2018-Oct-20 03:14  m  04 30 54.762154 -33 27 00.75048
 2018-Oct-20 03:15  m  04 30 54.759880 -33 27 00.77699
 2018-Oct-20 03:16  m  04 30 54.757606 -33 27 00.80351
 2018-Oct-20 03:17  m  04 30 54.755331 -33 27 00.83002
 2018-Oct-20 03:18  m  04 30 54.753056 -33 27 00.85653
 2018-Oct-20 03:19  m  04 30 54.750781 -33 27 00.88304
 2018-Oct-20 03:20  m  04 30 54.748506 -33 27 00.90955
 2018-Oct-20 03:21  m  04 30 54.746231 -33 27 00.93606
 2018-Oct-20 03:22  m  04 30 54.743955 -33 27 00.96257
 2018-Oct-20 03:23  m  04 30 54.741679 -33 27 00.98907
 2018-Oct-20 03:24  m  04 30 54.739403 -33 27 01.01558
 2018-Oct-20 03:25  m  04 30 54.737127 -33 27 01.04208
 2018-Oct-20 03:26  m  04 30 54.734850 -33 27 01.06859
 2018-Oct-20 03:27  m  04 30 54.732574 -33 27 01.09509
 2018-Oct-20 03:28  m  04 30 54.730297 -33 27 01.12159
 2018-Oct-20 03:29  m  04 30 54.728020 -33 27 01.14809
 2018-Oct-20 03:30  m  04 30 54.725742 -33 27 01.17459
 2018-Oct-20 03:31  m  04 30 54.723465 -33 27 01.20109
 2018-Oct-20 03:32  m  04 30 54.721187 -33 27 01.22758
 2018-Oct-20 03:33  m  04 30 54.718909 -33 27 01.25408
 2018-Oct-20 03:34  m  04 30 54.716630 -33 27 01.28057
 2018-Oct-20 03:35  m  04 30 54.714352 -33 27 01.30707
 2018-Oct-20 03:36  m  04 30 54.712073 -33 27 01.33356
 2018-Oct-20 03:37  m  04 30 54.709794 -33 27 01.36005
 2018-Oct-20 03:38  m  04 30 54.707515 -33 27 01.38654
 2018-Oct-20 03:39  m  04 30 54.705236 -33 27 01.41303
 2018-Oct-20 03:40  m  04 30 54.702956 -33 27 01.43951
 2018-Oct-20 03:41  m  04 30 54.700676 -33 27 01.46600
 2018-Oct-20 03:42  m  04 30 54.698396 -33 27 01.49249
 2018-Oct-20 03:43  m  04 30 54.696116 -33 27 01.51897
 2018-Oct-20 03:44  m  04 30 54.693836 -33 27 01.54545
 2018-Oct-20 03:45  m  04 30 54.691555 -33 27 01.57193
 2018-Oct-20 03:46  m  04 30 54.689274 -33 27 01.59841
 2018-Oct-20 03:47  m  04 30 54.686993 -33 27 01.62489
 2018-Oct-20 03:48  m  04 30 54.684712 -33 27 01.65137
 2018-Oct-20 03:49  m  04 30 54.682430 -33 27 01.67785
 2018-Oct-20 03:50  m  04 30 54.680148 -33 27 01.70432
 2018-Oct-20 03:51  m  04 30 54.677867 -33 27 01.73079
 2018-Oct-20 03:52  m  04 30 54.675584 -33 27 01.75727
 2018-Oct-20 03:53  m  04 30 54.673302 -33 27 01.78374
 2018-Oct-20 03:54  m  04 30 54.671020 -33 27 01.81021
 2018-Oct-20 03:55  m  04 30 54.668737 -33 27 01.83668
 2018-Oct-20 03:56  m  04 30 54.666454 -33 27 01.86315
 2018-Oct-20 03:57  m  04 30 54.664171 -33 27 01.88961
 2018-Oct-20 03:58  m  04 30 54.661887 -33 27 01.91608
 2018-Oct-20 03:59  m  04 30 54.659604 -33 27 01.94254
 2018-Oct-20 04:00  m  04 30 54.657320 -33 27 01.96900
 2018-Oct-20 04:01  m  04 30 54.655036 -33 27 01.99546
 2018-Oct-20 04:02  m  04 30 54.652752 -33 27 02.02192
 2018-Oct-20 04:03  m  04 30 54.650467 -33 27 02.04838
 2018-Oct-20 04:04  m  04 30 54.648183 -33 27 02.07484
 2018-Oct-20 04:05  m  04 30 54.645898 -33 27 02.10130
 2018-Oct-20 04:06  m  04 30 54.643613 -33 27 02.12775
 2018-Oct-20 04:07  m  04 30 54.641328 -33 27 02.15420
 2018-Oct-20 04:08  m  04 30 54.639042 -33 27 02.18066
 2018-Oct-20 04:09  m  04 30 54.636757 -33 27 02.20711
 2018-Oct-20 04:10  m  04 30 54.634471 -33 27 02.23356
 2018-Oct-20 04:11  m  04 30 54.632185 -33 27 02.26000
 2018-Oct-20 04:12  m  04 30 54.629899 -33 27 02.28645
 2018-Oct-20 04:13  m  04 30 54.627613 -33 27 02.31290
 2018-Oct-20 04:14  m  04 30 54.625326 -33 27 02.33934
 2018-Oct-20 04:15  m  04 30 54.623039 -33 27 02.36578
 2018-Oct-20 04:16  m  04 30 54.620752 -33 27 02.39222
 2018-Oct-20 04:17  m  04 30 54.618465 -33 27 02.41866
 2018-Oct-20 04:18  m  04 30 54.616178 -33 27 02.44510
 2018-Oct-20 04:19  m  04 30 54.613890 -33 27 02.47154
 2018-Oct-20 04:20  m  04 30 54.611603 -33 27 02.49797
 2018-Oct-20 04:21  m  04 30 54.609315 -33 27 02.52441
 2018-Oct-20 04:22  m  04 30 54.607027 -33 27 02.55084
 2018-Oct-20 04:23  m  04 30 54.604738 -33 27 02.57727
 2018-Oct-20 04:24  m  04 30 54.602450 -33 27 02.60370
 2018-Oct-20 04:25  m  04 30 54.600161 -33 27 02.63013
 2018-Oct-20 04:26  m  04 30 54.597872 -33 27 02.65656
 2018-Oct-20 04:27  m  04 30 54.595583 -33 27 02.68298
 2018-Oct-20 04:28  m  04 30 54.593294 -33 27 02.70941
 2018-Oct-20 04:29  m  04 30 54.591005 -33 27 02.73583
 2018-Oct-20 04:30  m  04 30 54.588715 -33 27 02.76225
 2018-Oct-20 04:31  m  04 30 54.586425 -33 27 02.78867
 2018-Oct-20 04:32  m  04 30 54.584135 -33 27 02.81509
 2018-Oct-20 04:33  m  04 30 54.581845 -33 27 02.84151
 2018-Oct-20 04:34  m  04 30 54.579555 -33 27 02.86792
 2018-Oct-20 04:35  m  04 30 54.577264 -33 27 02.89434
 2018-Oct-20 04:36  m  04 30 54.574974 -33 27 02.92075
 2018-Oct-20 04:37  m  04 30 54.572683 -33 27 02.94716
 2018-Oct-20 04:38  m  04 30 54.570392 -33 27 02.97357
 2018-Oct-20 04:39  m  04 30 54.568101 -33 27 02.99998
 2018-Oct-20 04:40  m  04 30 54.565809 -33 27 03.02639
 2018-Oct-20 04:41  m  04 30 54.563518 -33 27 03.05279
 2018-Oct-20 04:42  m  04 30 54.561226 -33 27 03.07920
 2018-Oct-20 04:43  m  04 30 54.558934 -33 27 03.10560
 2018-Oct-20 04:44  m  04 30 54.556642 -33 27 03.13200
 2018-Oct-20 04:45  m  04 30 54.554350 -33 27 03.15840
 2018-Oct-20 04:46  m  04 30 54.552057 -33 27 03.18480
 2018-Oct-20 04:47  m  04 30 54.549765 -33 27 03.21119
 2018-Oct-20 04:48  m  04 30 54.547472 -33 27 03.23759
 2018-Oct-20 04:49  m  04 30 54.545179 -33 27 03.26398
 2018-Oct-20 04:50  m  04 30 54.542886 -33 27 03.29037
 2018-Oct-20 04:51  m  04 30 54.540593 -33 27 03.31676
 2018-Oct-20 04:52  m  04 30 54.538299 -33 27 03.34315
 2018-Oct-20 04:53  m  04 30 54.536005 -33 27 03.36954
 2018-Oct-20 04:54  m  04 30 54.533712 -33 27 03.39592
 2018-Oct-20 04:55  m  04 30 54.531418 -33 27 03.42231
 2018-Oct-20 04:56  m  04 30 54.529124 -33 27 03.44869
 2018-Oct-20 04:57  m  04 30 54.526829 -33 27 03.47507
 2018-Oct-20 04:58  m  04 30 54.524535 -33 27 03.50145
 2018-Oct-20 04:59  m  04 30 54.522240 -33 27 03.52783
 2018-Oct-20 05:00  m  04 30 54.519946 -33 27 03.55420
 2018-Oct-20 05:01  m  04 30 54.517651 -33 27 03.58058
 2018-Oct-20 05:02  m  04 30 54.515356 -33 27 03.60695
 2018-Oct-20 05:03  m  04 30 54.513060 -33 27 03.63332
 2018-Oct-20 05:04  m  04 30 54.510765 -33 27 03.65969
 2018-Oct-20 05:05  m  04 30 54.508469 -33 27 03.68606
 2018-Oct-20 05:06  m  04 30 54.506174 -33 27 03.71243
 2018-Oct-20 05:07  m  04 30 54.503878 -33 27 03.73879
 2018-Oct-20 05:08  m  04 30 54.501582 -33 27 03.76516
 2018-Oct-20 05:09  m  04 30 54.499286 -33 27 03.79152
 2018-Oct-20 05:10  m  04 30 54.496989 -33 27 03.81788
 2018-Oct-20 05:11  m  04 30 54.494693 -33 27 03.84424
 2018-Oct-20 05:12  m  04 30 54.492396 -33 27 03.87060
